{{Infobox Planet  
| name = 501 Urhixidur
| image = 
| caption = 
| discovery=yes | physical_characteristics = yes | bgcolour=#FFFFC0
| discovery_ref = 
| discoverer = [[马克斯·沃夫|马克斯·沃夫]]
| discovery_site = [[海德堡|海德堡]]（[[天文台编号列表|024]]）
| discovered =  1903年1月18日
| mp_name = 501
| alt_names = 1903 LB
| named_after = 
| mp_category=[[小行星带|主带小行星]]
| orbit_ref = <ref>[http://ssd.jpl.nasa.gov/sbdb.cgi?sstr=501 501 Urhixidur (1903 LB)]</ref>
| epoch = 2011年8月27日
| semimajor= 3.164677887722773AU
| perihelion=2.7197074028209AU
| aphelion= 3.609648372624646[[天文单位|AU]]
| eccentricity =0.1406053003460846					
| period =2056.329451550111[[日|地球日]]<br>5.63[[年|地球年]] 
| inclination=357.4240002567321[[角度|°]]
| asc_node=217.7798509392999°
| arg_peri=352.8003510126649°
| mean_anomaly=248.3574202272456°
| avg_speed=
 | dimensions=77.44千米
 | mass=
 | density=
 | surface_grav=
 | escape_velocity=
 | rotation=15.小时
 | spectral_type= 
 | magnitude=
 | abs_magnitude=8.90
 | albedo=0.0812
 | single_temperature=
}}
'''小行星501'''（'''501 Urhixidur'''），是由[[德国|德国]][[天文学家|天文学家]][[马克斯·沃夫|马克斯·沃夫]]于1903年1月18日在德国[[海德堡|海德堡]][[王座山天文台|王座山天文台]]利用照相法发现的[[小行星带|主带]][[小行星|小行星]]。

小行星501以德国作家Friedrich Theodor Vischer的小说Auch Einer的登场人物命名。

== 参考资料 ==
{{Reflist}}

{{Minor Planet Number|(500)[[小行星500|小行星500]]|(502)[[小行星502|小行星502]]}}

[[Category:小行星带天体|Category:小行星带天体]]
[[Category:1903年发现的小行星|Category:1903年发现的小行星]]